[{"OBJECT_NAME":"STARLINK-30507","OBJECT_ID":"2023-151U","EPOCH":"2026-03-09T03:02:09.742560","MEAN_MOTION":15.02538442,"ECCENTRICITY":0.00010305,"INCLINATION":43.0052,"RA_OF_ASC_NODE":355.017,"ARG_OF_PERICENTER":262.7137,"MEAN_ANOMALY":97.3588,"EPHEMERIS_TYPE":0,"CLASSIFICATION_TYPE":"U","NORAD_CAT_ID":57982,"ELEMENT_SET_NO":999,"REV_AT_EPOCH":13549,"BSTAR":2.891353e-6,"MEAN_MOTION_DOT":-1.65e-6,"MEAN_MOTION_DDOT":0},{"OBJECT_NAME":"COSMOS 2251 DEB","OBJECT_ID":"1993-036BYJ","EPOCH":"2026-02-27T08:25:05.077344","MEAN_MOTION":15.02778291,"ECCENTRICITY":0.0017194,"INCLINATION":74.0208,"RA_OF_ASC_NODE":84.7822,"ARG_OF_PERICENTER":181.9976,"MEAN_ANOMALY":194.0424,"EPHEMERIS_TYPE":0,"CLASSIFICATION_TYPE":"U","NORAD_CAT_ID":47116,"ELEMENT_SET_NO":999,"REV_AT_EPOCH":60660,"BSTAR":0.0017596726,"MEAN_MOTION_DOT":0.00023658,"MEAN_MOTION_DDOT":0}]
